STARLINK-31661          
1 59735U 24090F   26068.37613600  .00001996  00000+0  82050-4 0  9995
2 59735  43.0005 178.2217 0002021 270.9730  89.0890 15.27578506103479
HERMES-4                
1 63833U 25052BP  26068.92081747  .00021364  00000+0  81237-3 0  9996
2 63833  97.4000 323.4610 0002652 154.9526 205.1842 15.26796135 54782
